STARLINK-30144          
1 56835U 23079N   26068.46727537  .00020067  00000+0  74607-3 0  9992
2 56835  42.9924 104.9420 0000253 240.8019 119.2807 15.27165073152893
GESAT GEN1              
1 62612U 25009D   26068.72662138  .00010041  00000+0  38326-3 0  9990
2 62612  97.4058 151.4598 0000888  98.3547 261.7793 15.26847505 63732
